{"type": "FeatureCollection", "features": [ {"type": "Feature", "properties": {"norad_id": 66906, "name": "1998-067XS", "group": "last-30-days", "lat": -47.659025254385334, "lon": 59.438668579955056, "alt_km": 417.966498265414, "timestamp": "2025-12-17T07:00:45.614144+00:00", "meta": {"OBJECT_NAME": "1998-067XS", "OBJECT_ID": "1998-067XS", "EPOCH": "2025-12-16T12:45:26.228448", "MEAN_MOTION": 15.50774437, "ECCENTRICITY": 0.00032711, "INCLINATION": 51.6305, "RA_OF_ASC_NODE": 123.6106, "ARG_OF_PERICENTER": 220.1232, "MEAN_ANOMALY": 139.9515, "EPHEMERIS_TYPE": 0, "CLASSIFICATION_TYPE": "U", "NORAD_CAT_ID": 66906, "ELEMENT_SET_NO": 999, "REV_AT_EPOCH": 220, "BSTAR": 0.00042417105, "MEAN_MOTION_DOT": 0.00024501, "MEAN_MOTION_DDOT": 0}, "tle": {"line1": "1 66906U 98067XS  25350.53155357  .00024501  00000+0  42417-3 0  9998", "line2": "2 66906  51.6305 123.6106 0003271 220.1232 139.9515 15.50774437  2203"}}, "geometry": {"type": "Point", "coordinates": [59.438668579955056, -47.659025254385334]}}, {"type": "Feature", "properties": {"norad_id": 66907, "name": "1998-067XT", "group": "last-30-days", "lat": -28.92201725969038, "lon": 93.80581517166745, "alt_km": 413.4710284166076, "timestamp": "2025-12-17T07:00:45.614157+00:00", "meta": {"OBJECT_NAME": "1998-067XT", "OBJECT_ID": "1998-067XT", "EPOCH": "2025-12-16T20:21:31.143168", "MEAN_MOTION": 15.51965497, "ECCENTRICITY": 0.00040676, "INCLINATION": 51.63, "RA_OF_ASC_NODE": 121.975, "ARG_OF_PERICENTER": 250.8278, "MEAN_ANOMALY": 109.2271, "EPHEMERIS_TYPE": 0, "CLASSIFICATION_TYPE": "U", "NORAD_CAT_ID": 66907, "ELEMENT_SET_NO": 999, "REV_AT_EPOCH": 225, "BSTAR": 0.00093338761, "MEAN_MOTION_DOT": 0.00057093, "MEAN_MOTION_DDOT": 0}, "tle": {"line1": "1 66907U 98067XT  25350.84827712  .00057093  00000+0  93339-3 0  9995", "line2": "2 66907  51.6300 121.9750 0004067 250.8278 109.2271 15.51965497  2252"}}, "geometry": {"type": "Point", "coordinates": [93.80581517166745, -28.92201725969038]}}, {"type": "Feature", "properties": {"norad_id": 66908, "name": "1998-067XU", "group": "last-30-days", "lat": -26.566697133711557, "lon": 96.42003584178141, "alt_km": 413.23296361429857, "timestamp": "2025-12-17T07:00:45.614167+00:00", "meta": {"OBJECT_NAME": "1998-067XU", "OBJECT_ID": "1998-067XU", "EPOCH": "2025-12-16T14:09:49.500000", "MEAN_MOTION": 15.5202573, "ECCENTRICITY": 0.00042401, "INCLINATION": 51.6296, "RA_OF_ASC_NODE": 123.2512, "ARG_OF_PERICENTER": 248.5284, "MEAN_ANOMALY": 111.5254, "EPHEMERIS_TYPE": 0, "CLASSIFICATION_TYPE": "U", "NORAD_CAT_ID": 66908, "ELEMENT_SET_NO": 999, "REV_AT_EPOCH": 221, "BSTAR": 0.00090601602, "MEAN_MOTION_DOT": 0.00055516, "MEAN_MOTION_DDOT": 0}, "tle": {"line1": "1 66908U 98067XU  25350.59015625  .00055516  00000+0  90602-3 0  9998", "line2": "2 66908  51.6296 123.2512 0004240 248.5284 111.5254 15.52025730  2213"}}, "geometry": {"type": "Point", "coordinates": [96.42003584178141, -26.566697133711557]}}, {"type": "Feature", "properties": {"norad_id": 66909, "name": "SILVERSAT", "group": "last-30-days", "lat": -23.65238841520183, "lon": 99.44741993142442, "alt_km": 412.7807418431903, "timestamp": "2025-12-17T07:00:45.614179+00:00", "meta": {"OBJECT_NAME": "SILVERSAT", "OBJECT_ID": "1998-067XV", "EPOCH": "2025-12-16T14:08:52.774080", "MEAN_MOTION": 15.52156791, "ECCENTRICITY": 0.00040754, "INCLINATION": 51.6305, "RA_OF_ASC_NODE": 123.2468, "ARG_OF_PERICENTER": 249.7085, "MEAN_ANOMALY": 110.3467, "EPHEMERIS_TYPE": 0, "CLASSIFICATION_TYPE": "U", "NORAD_CAT_ID": 66909, "ELEMENT_SET_NO": 999, "REV_AT_EPOCH": 221, "BSTAR": 0.00095917161, "MEAN_MOTION_DOT": 0.00059105, "MEAN_MOTION_DDOT": 0}, "tle": {"line1": "1 66909U 98067XV  25350.58949970  .00059105  00000+0  95917-3 0  9999", "line2": "2 66909  51.6305 123.2468 0004075 249.7085 110.3467 15.52156791  2218"}}, "geometry": {"type": "Point", "coordinates": [99.44741993142442, -23.65238841520183]}}, {"type": "Feature", "properties": {"norad_id": 66910, "name": "1998-067XW", "group": "last-30-days", "lat": -16.339400973451536, "lon": 106.30059470967595, "alt_km": 413.61699027258146, "timestamp": "2025-12-17T07:00:45.614189+00:00", "meta": {"OBJECT_NAME": "1998-067XW", "OBJECT_ID": "1998-067XW", "EPOCH": "2025-12-16T14:06:24.222240", "MEAN_MOTION": 15.52215974, "ECCENTRICITY": 0.00046619, "INCLINATION": 51.6297, "RA_OF_ASC_NODE": 123.2359, "ARG_OF_PERICENTER": 228.2549, "MEAN_ANOMALY": 131.8043, "EPHEMERIS_TYPE": 0, "CLASSIFICATION_TYPE": "U", "NORAD_CAT_ID": 66910, "ELEMENT_SET_NO": 999, "REV_AT_EPOCH": 221, "BSTAR": 0.00082001517, "MEAN_MOTION_DOT": 0.00050519, "MEAN_MOTION_DDOT": 0}, "tle": {"line1": "1 66910U 98067XW  25350.58778035  .00050519  00000+0  82002-3 0  9994", "line2": "2 66910  51.6297 123.2359 0004661 228.2549 131.8043 15.52215974  2214"}}, "geometry": {"type": "Point", "coordinates": [106.30059470967595, -16.339400973451536]}}, {"type": "Feature", "properties": {"norad_id": 66911, "name": "1998-067XX", "group": "last-30-days", "lat": -9.296650687732678, "lon": 112.26143135162872, "alt_km": 411.9921095313648, "timestamp": "2025-12-17T07:00:45.614199+00:00", "meta": {"OBJECT_NAME": "1998-067XX", "OBJECT_ID": "1998-067XX", "EPOCH": "2025-12-16T21:47:43.238976", "MEAN_MOTION": 15.52613586, "ECCENTRICITY": 0.00043348, "INCLINATION": 51.6301, "RA_OF_ASC_NODE": 121.625, "ARG_OF_PERICENTER": 233.1446, "MEAN_ANOMALY": 126.9147, "EPHEMERIS_TYPE": 0, "CLASSIFICATION_TYPE": "U", "NORAD_CAT_ID": 66911, "ELEMENT_SET_NO": 999, "REV_AT_EPOCH": 225, "BSTAR": 0.0010270011, "MEAN_MOTION_DOT": 0.00064419, "MEAN_MOTION_DDOT": 0}, "tle": {"line1": "1 66911U 98067XX  25350.90813934  .00064419  00000+0  10270-2 0  9990", "line2": "2 66911  51.6301 121.6250 0004334 233.1446 126.9147 15.52613586  2256"}}, "geometry": {"type": "Point", "coordinates": [112.26143135162872, -9.296650687732678]}}, {"type": "Feature", "properties": {"norad_id": 66912, "name": "1998-067XY", "group": "last-30-days", "lat": -36.68475850365044, "lon": 83.61722285526879, "alt_km": 414.89118566985053, "timestamp": "2025-12-17T07:00:45.614209+00:00", "meta": {"OBJECT_NAME": "1998-067XY", "OBJECT_ID": "1998-067XY", "EPOCH": "2025-12-16T15:46:04.337760", "MEAN_MOTION": 15.51521639, "ECCENTRICITY": 0.00042238, "INCLINATION": 51.6299, "RA_OF_ASC_NODE": 122.9476, "ARG_OF_PERICENTER": 244.4597, "MEAN_ANOMALY": 115.5956, "EPHEMERIS_TYPE": 0, "CLASSIFICATION_TYPE": "U", "NORAD_CAT_ID": 66912, "ELEMENT_SET_NO": 999, "REV_AT_EPOCH": 221, "BSTAR": 0.00074796807, "MEAN_MOTION_DOT": 0.00044864, "MEAN_MOTION_DDOT": 0}, "tle": {"line1": "1 66912U 98067XY  25350.65699465  .00044864  00000+0  74797-3 0  9991", "line2": "2 66912  51.6299 122.9476 0004223 244.4597 115.5956 15.51521639  2210"}}, "geometry": {"type": "Point", "coordinates": [83.61722285526879, -36.68475850365044]}}, {"type": "Feature", "properties": {"norad_id": 66913, "name": "2025-284A", "group": "last-30-days", "lat": 77.15944345463701, "lon": 171.91653922133634, "alt_km": 506.4321460468909, "timestamp": "2025-12-17T07:00:45.614219+00:00", "meta": {"OBJECT_NAME": "2025-284A", "OBJECT_ID": "2025-284A", "EPOCH": "2025-12-16T22:44:10.528512", "MEAN_MOTION": 15.16439039, "ECCENTRICITY": 0.00202891, "INCLINATION": 80.4051, "RA_OF_ASC_NODE": 124.4376, "ARG_OF_PERICENTER": 160.9258, "MEAN_ANOMALY": 199.2733, "EPHEMERIS_TYPE": 0, "CLASSIFICATION_TYPE": "U", "NORAD_CAT_ID": 66913, "ELEMENT_SET_NO": 999, "REV_AT_EPOCH": 176, "BSTAR": 0.00043058043, "MEAN_MOTION_DOT": 8.437e-05, "MEAN_MOTION_DDOT": 0}, "tle": {"line1": "1 66913U 25284A   25350.94734408  .00008437  00000+0  43058-3 0  9994", "line2": "2 66913  80.4051 124.4376 0020289 160.9258 199.2733 15.16439039  1763"}}, "geometry": {"type": "Point", "coordinates": [171.91653922133634, 77.15944345463701]}}, {"type": "Feature", "properties": {"norad_id": 66914, "name": "2025-284B", "group": "last-30-days", "lat": 75.12377491764275, "lon": -95.56328081381032, "alt_km": 505.3001875315522, "timestamp": "2025-12-17T07:00:45.614230+00:00", "meta": {"OBJECT_NAME": "2025-284B", "OBJECT_ID": "2025-284B", "EPOCH": "2025-12-16T06:51:11.417184", "MEAN_MOTION": 15.18985981, "ECCENTRICITY": 0.00081793, "INCLINATION": 80.4045, "RA_OF_ASC_NODE": 125.2713, "ARG_OF_PERICENTER": 234.9626, "MEAN_ANOMALY": 125.0834, "EPHEMERIS_TYPE": 0, "CLASSIFICATION_TYPE": "U", "NORAD_CAT_ID": 66914, "ELEMENT_SET_NO": 999, "REV_AT_EPOCH": 166, "BSTAR": 0.00038444995, "MEAN_MOTION_DOT": 8.068e-05, "MEAN_MOTION_DDOT": 0}, "tle": {"line1": "1 66914U 25284B   25350.28554881  .00008068  00000+0  38445-3 0  9991", "line2": "2 66914  80.4045 125.2713 0008179 234.9626 125.0834 15.18985981  1668"}}, "geometry": {"type": "Point", "coordinates": [-95.56328081381032, 75.12377491764275]}}, {"type": "Feature", "properties": {"norad_id": 66915, "name": "HULIANWANG DIGUI-105", "group": "last-30-days", "lat": 8.995843701512683, "lon": -88.90298662202134, "alt_km": 883.9319089477776, "timestamp": "2025-12-17T07:00:45.614240+00:00", "meta": {"OBJECT_NAME": "HULIANWANG DIGUI-105", "OBJECT_ID": "2025-285A", "EPOCH": "2025-12-16T23:22:47.904384", "MEAN_MOTION": 14.03717093, "ECCENTRICITY": 0.00079636, "INCLINATION": 50.0058, "RA_OF_ASC_NODE": 100.0293, "ARG_OF_PERICENTER": 296.8829, "MEAN_ANOMALY": 63.1261, "EPHEMERIS_TYPE": 0, "CLASSIFICATION_TYPE": "U", "NORAD_CAT_ID": 66915, "ELEMENT_SET_NO": 999, "REV_AT_EPOCH": 150, "BSTAR": 0.00017788391, "MEAN_MOTION_DOT": 1.3e-06, "MEAN_MOTION_DDOT": 0}, "tle": {"line1": "1 66915U 25285A   25350.97416556  .00000130  00000+0  17788-3 0  9994", "line2": "2 66915  50.0058 100.0293 0007963 296.8829  63.1261 14.03717093  1501"}}, "geometry": {"type": "Point", "coordinates": [-88.90298662202134, 8.995843701512683]}}]}